{
  "norad_id": 40315,
  "name": "COSMOS 2501 [GLONASS-K]",
  "history": [
    {
      "epoch": "2026-03-25T07:16:41.300256Z",
      "apogee_km": 19183.977582962158,
      "perigee_km": 19075.911065946228,
      "latitude_deg": 1.6543707138470795e-06,
      "longitude_deg": -98.66976614101348,
      "height_km": 19178.474706019748,
      "semi_major_axis_km": 25508.081324454193,
      "eccentricity": 0.00211828,
      "inclination_deg": 63.6158,
      "raan_deg": 193.2737,
      "arg_perigee_deg": 207.3153,
      "mean_anomaly_deg": 152.5805,
      "mean_motion_rev_day": 2.13101287
    },
    {
      "epoch": "2026-04-07T21:53:00.371904Z",
      "apogee_km": 19184.397908980158,
      "perigee_km": 19075.223891966132,
      "latitude_deg": -9.029580872787876e-06,
      "longitude_deg": 28.368357707987002,
      "height_km": 19178.462323869226,
      "semi_major_axis_km": 25507.947900473144,
      "eccentricity": 0.00214,
      "inclination_deg": 63.6149,
      "raan_deg": 192.8037,
      "arg_perigee_deg": 208.1731,
      "mean_anomaly_deg": 151.7474,
      "mean_motion_rev_day": 2.13102959
    },
    {
      "epoch": "2026-04-09T07:40:12.105120Z",
      "apogee_km": 19184.84673291278,
      "perigee_km": 19074.99882428223,
      "latitude_deg": -3.5954778462836966e-05,
      "longitude_deg": -119.86662539672523,
      "height_km": 19178.659928475903,
      "semi_major_axis_km": 25508.059778597504,
      "eccentricity": 0.0021532,
      "inclination_deg": 63.6148,
      "raan_deg": 192.7549,
      "arg_perigee_deg": 208.6312,
      "mean_anomaly_deg": 151.2859,
      "mean_motion_rev_day": 2.13101557
    }
  ]
}